[{"OBJECT_NAME":"STARLINK-36096","OBJECT_ID":"2025-286AA","EPOCH":"2026-02-14T06:00:02.000160","MEAN_MOTION":15.3391203,"ECCENTRICITY":0.00013885,"INCLINATION":53.1593,"RA_OF_ASC_NODE":107.1044,"ARG_OF_PERICENTER":94.7716,"MEAN_ANOMALY":173.956,"EPHEMERIS_TYPE":0,"CLASSIFICATION_TYPE":"U","NORAD_CAT_ID":66949,"ELEMENT_SET_NO":999,"REV_AT_EPOCH":584,"BSTAR":-0.071982957,"MEAN_MOTION_DOT":-0.02151671,"MEAN_MOTION_DDOT":0},{"OBJECT_NAME":"STARLINK-36111","OBJECT_ID":"2025-286AB","EPOCH":"2026-02-13T14:08:41.540352","MEAN_MOTION":15.30204672,"ECCENTRICITY":0.00010927,"INCLINATION":53.16,"RA_OF_ASC_NODE":110.6209,"ARG_OF_PERICENTER":92.3135,"MEAN_ANOMALY":267.7991,"EPHEMERIS_TYPE":0,"CLASSIFICATION_TYPE":"U","NORAD_CAT_ID":66950,"ELEMENT_SET_NO":999,"REV_AT_EPOCH":1172,"BSTAR":0.00054790796,"MEAN_MOTION_DOT":0.00015905,"MEAN_MOTION_DDOT":0},{"OBJECT_NAME":"STARLINK-35999","OBJECT_ID":"2025-286AC","EPOCH":"2026-02-14T04:01:29.700768","MEAN_MOTION":15.30215622,"ECCENTRICITY":0.00022592,"INCLINATION":53.1607,"RA_OF_ASC_NODE":107.8265,"ARG_OF_PERICENTER":100.7259,"MEAN_ANOMALY":259.3997,"EPHEMERIS_TYPE":0,"CLASSIFICATION_TYPE":"U","NORAD_CAT_ID":66951,"ELEMENT_SET_NO":999,"REV_AT_EPOCH":1181,"BSTAR":0.00083683276,"MEAN_MOTION_DOT":0.0002452,"MEAN_MOTION_DDOT":0},{"OBJECT_NAME":"STARLINK-36122","OBJECT_ID":"2025-286AD","EPOCH":"2026-02-14T04:34:55.532064","MEAN_MOTION":15.30216348,"ECCENTRICITY":0.00014291,"INCLINATION":53.16,"RA_OF_ASC_NODE":107.9757,"ARG_OF_PERICENTER":98.2802,"MEAN_ANOMALY":261.8361,"EPHEMERIS_TYPE":0,"CLASSIFICATION_TYPE":"U","NORAD_CAT_ID":66952,"ELEMENT_SET_NO":999,"REV_AT_EPOCH":1181,"BSTAR":0.00096029829,"MEAN_MOTION_DOT":0.00028205,"MEAN_MOTION_DDOT":0},{"OBJECT_NAME":"STARLINK-35887","OBJECT_ID":"2025-288A","EPOCH":"2026-02-14T07:09:51.410016","MEAN_MOTION":15.40740885,"ECCENTRICITY":0.00023805,"INCLINATION":43.0001,"RA_OF_ASC_NODE":156.1116,"ARG_OF_PERICENTER":251.1792,"MEAN_ANOMALY":108.8807,"EPHEMERIS_TYPE":0,"CLASSIFICATION_TYPE":"U","NORAD_CAT_ID":66959,"ELEMENT_SET_NO":999,"REV_AT_EPOCH":1170,"BSTAR":0.0013229115,"MEAN_MOTION_DOT":0.00055438,"MEAN_MOTION_DDOT":0},{"OBJECT_NAME":"STARLINK-35879","OBJECT_ID":"2025-288B","EPOCH":"2026-02-13T08:37:49.854720","MEAN_MOTION":15.40566479,"ECCENTRICITY":0.00038752,"INCLINATION":42.995,"RA_OF_ASC_NODE":161.0939,"ARG_OF_PERICENTER":215.4499,"MEAN_ANOMALY":144.61,"EPHEMERIS_TYPE":0,"CLASSIFICATION_TYPE":"U","NORAD_CAT_ID":66960,"ELEMENT_SET_NO":999,"REV_AT_EPOCH":1156,"BSTAR":0.00074008903,"MEAN_MOTION_DOT":0.00030604,"MEAN_MOTION_DDOT":0},{"OBJECT_NAME":"STARLINK-35761","OBJECT_ID":"2025-288C","EPOCH":"2026-02-14T06:47:17.089152","MEAN_MOTION":15.40745111,"ECCENTRICITY":0.00023191,"INCLINATION":43.0027,"RA_OF_ASC_NODE":155.9974,"ARG_OF_PERICENTER":296.6079,"MEAN_ANOMALY":63.454,"EPHEMERIS_TYPE":0,"CLASSIFICATION_TYPE":"U","NORAD_CAT_ID":66961,"ELEMENT_SET_NO":999,"REV_AT_EPOCH":1170,"BSTAR":0.0013104146,"MEAN_MOTION_DOT":0.00054915,"MEAN_MOTION_DDOT":0},{"OBJECT_NAME":"STARLINK-35874","OBJECT_ID":"2025-288D","EPOCH":"2026-02-14T00:00:02.000160","MEAN_MOTION":15.27593294,"ECCENTRICITY":0.00017682,"INCLINATION":43.0005,"RA_OF_ASC_NODE":157.6701,"ARG_OF_PERICENTER":271.2547,"MEAN_ANOMALY":295.4139,"EPHEMERIS_TYPE":0,"CLASSIFICATION_TYPE":"U","NORAD_CAT_ID":66962,"ELEMENT_SET_NO":999,"REV_AT_EPOCH":580,"BSTAR":-0.00093017989,"MEAN_MOTION_DOT":-0.00025781,"MEAN_MOTION_DDOT":0},{"OBJECT_NAME":"STARLINK-36133","OBJECT_ID":"2025-288E","EPOCH":"2026-02-14T06:00:02.000160","MEAN_MOTION":15.28399243,"ECCENTRICITY":0.00014279,"INCLINATION":42.9995,"RA_OF_ASC_NODE":155.9376,"ARG_OF_PERICENTER":269.3579,"MEAN_ANOMALY":6.5266,"EPHEMERIS_TYPE":0,"CLASSIFICATION_TYPE":"U","NORAD_CAT_ID":66963,"ELEMENT_SET_NO":999,"REV_AT_EPOCH":590,"BSTAR":0.0014189401,"MEAN_MOTION_DOT":0.0003999,"MEAN_MOTION_DDOT":0},{"OBJECT_NAME":"STARLINK-36104","OBJECT_ID":"2025-288F","EPOCH":"2026-02-14T06:00:02.000160","MEAN_MOTION":15.30642101,"ECCENTRICITY":0.00011099,"INCLINATION":42.9999,"RA_OF_ASC_NODE":156.1935,"ARG_OF_PERICENTER":288.2173,"MEAN_ANOMALY":244.234,"EPHEMERIS_TYPE":0,"CLASSIFICATION_TYPE":"U","NORAD_CAT_ID":66964,"ELEMENT_SET_NO":999,"REV_AT_EPOCH":590,"BSTAR":-0.0958505,"MEAN_MOTION_DOT":-0.02593622,"MEAN_MOTION_DDOT":0},{"OBJECT_NAME":"STARLINK-36067","OBJECT_ID":"2025-288G","EPOCH":"2026-02-13T15:23:25.454112","MEAN_MOTION":15.40740085,"ECCENTRICITY":0.00024205,"INCLINATION":43.0024,"RA_OF_ASC_NODE":159.7821,"ARG_OF_PERICENTER":285.4622,"MEAN_ANOMALY":74.5967,"EPHEMERIS_TYPE":0,"CLASSIFICATION_TYPE":"U","NORAD_CAT_ID":66965,"ELEMENT_SET_NO":999,"REV_AT_EPOCH":1160,"BSTAR":0.0012082169,"MEAN_MOTION_DOT":0.00050571,"MEAN_MOTION_DDOT":0},{"OBJECT_NAME":"STARLINK-36139","OBJECT_ID":"2025-288H","EPOCH":"2026-02-12T09:04:32.722464","MEAN_MOTION":15.40701911,"ECCENTRICITY":0.00020728,"INCLINATION":42.9989,"RA_OF_ASC_NODE":166.6326,"ARG_OF_PERICENTER":276.3299,"MEAN_ANOMALY":83.7321,"EPHEMERIS_TYPE":0,"CLASSIFICATION_TYPE":"U","NORAD_CAT_ID":66966,"ELEMENT_SET_NO":999,"REV_AT_EPOCH":1141,"BSTAR":0.00012484876,"MEAN_MOTION_DOT":4.915e-5,"MEAN_MOTION_DDOT":0},{"OBJECT_NAME":"STARLINK-36136","OBJECT_ID":"2025-288J","EPOCH":"2026-02-13T16:18:03.470112","MEAN_MOTION":15.40741234,"ECCENTRICITY":0.00028166,"INCLINATION":42.999,"RA_OF_ASC_NODE":159.1919,"ARG_OF_PERICENTER":248.1969,"MEAN_ANOMALY":111.8588,"EPHEMERIS_TYPE":0,"CLASSIFICATION_TYPE":"U","NORAD_CAT_ID":66967,"ELEMENT_SET_NO":999,"REV_AT_EPOCH":1161,"BSTAR":0.0010972892,"MEAN_MOTION_DOT":0.00045875,"MEAN_MOTION_DDOT":0},{"OBJECT_NAME":"STARLINK-36152","OBJECT_ID":"2025-288K","EPOCH":"2026-02-14T06:00:02.000160","MEAN_MOTION":15.27552767,"ECCENTRICITY":0.00019292,"INCLINATION":42.9995,"RA_OF_ASC_NODE":156.0527,"ARG_OF_PERICENTER":301.7652,"MEAN_ANOMALY":286.2483,"EPHEMERIS_TYPE":0,"CLASSIFICATION_TYPE":"U","NORAD_CAT_ID":66968,"ELEMENT_SET_NO":999,"REV_AT_EPOCH":590,"BSTAR":0.0016248725,"MEAN_MOTION_DOT":0.00044686,"MEAN_MOTION_DDOT":0},{"OBJECT_NAME":"STARLINK-36149","OBJECT_ID":"2025-288L","EPOCH":"2026-02-14T07:03:36.688032","MEAN_MOTION":15.39950578,"ECCENTRICITY":0.00021052,"INCLINATION":42.9938,"RA_OF_ASC_NODE":156.0886,"ARG_OF_PERICENTER":35.6592,"MEAN_ANOMALY":324.4405,"EPHEMERIS_TYPE":0,"CLASSIFICATION_TYPE":"U","NORAD_CAT_ID":66969,"ELEMENT_SET_NO":999,"REV_AT_EPOCH":1170,"BSTAR":-0.0069591355,"MEAN_MOTION_DOT":-0.00273946,"MEAN_MOTION_DDOT":0},{"OBJECT_NAME":"STARLINK-35703","OBJECT_ID":"2025-288M","EPOCH":"2026-02-13T16:08:23.354592","MEAN_MOTION":15.40710812,"ECCENTRICITY":0.00013635,"INCLINATION":42.9995,"RA_OF_ASC_NODE":159.1422,"ARG_OF_PERICENTER":285.7307,"MEAN_ANOMALY":74.3399,"EPHEMERIS_TYPE":0,"CLASSIFICATION_TYPE":"U","NORAD_CAT_ID":66970,"ELEMENT_SET_NO":999,"REV_AT_EPOCH":1161,"BSTAR":0.00090123195,"MEAN_MOTION_DOT":0.00037542,"MEAN_MOTION_DDOT":0}]
