STARLINK-36096          
1 66949U 25286AA  26045.25002315 -.02151671  00000+0 -71983-1 0  9995
2 66949  53.1593 107.1044 0001388  94.7716 173.9560 15.33912030  5848
STARLINK-36111          
1 66950U 25286AB  26044.58936968  .00015905  00000+0  54791-3 0  9997
2 66950  53.1600 110.6209 0001092  92.3135 267.7991 15.30204672 11729
STARLINK-35999          
1 66951U 25286AC  26045.16770487  .00024520  00000+0  83683-3 0  9990
2 66951  53.1607 107.8265 0002259 100.7259 259.3997 15.30215622 11814
STARLINK-36122          
1 66952U 25286AD  26045.19092051  .00028205  00000+0  96030-3 0  9992
2 66952  53.1600 107.9757 0001429  98.2802 261.8361 15.30216348 11817
STARLINK-35887          
1 66959U 25288A   26045.29851169  .00055438  00000+0  13229-2 0  9991
2 66959  43.0001 156.1116 0002380 251.1792 108.8807 15.40740885 11709
STARLINK-35879          
1 66960U 25288B   26044.35960480  .00030604  00000+0  74009-3 0  9998
2 66960  42.9950 161.0939 0003875 215.4499 144.6100 15.40566479 11560
STARLINK-35761          
1 66961U 25288C   26045.28283668  .00054915  00000+0  13104-2 0  9997
2 66961  43.0027 155.9974 0002319 296.6079  63.4540 15.40745111 11700
STARLINK-35874          
1 66962U 25288D   26045.00002315 -.00025781  00000+0 -93018-3 0  9990
2 66962  43.0005 157.6701 0001768 271.2547 295.4139 15.27593294  5803
STARLINK-36133          
1 66963U 25288E   26045.25002315  .00039990  00000+0  14189-2 0  9994
2 66963  42.9995 155.9376 0001427 269.3579   6.5266 15.28399243  5906
STARLINK-36104          
1 66964U 25288F   26045.25002315 -.02593622  00000+0 -95851-1 0  9990
2 66964  42.9999 156.1935 0001109 288.2173 244.2340 15.30642101  5903
STARLINK-36067          
1 66965U 25288G   26044.64126683  .00050571  00000+0  12082-2 0  9991
2 66965  43.0024 159.7821 0002420 285.4622  74.5967 15.40740085 11607
STARLINK-36139          
1 66966U 25288H   26043.37815651  .00004915  00000+0  12485-3 0  9990
2 66966  42.9989 166.6326 0002072 276.3299  83.7321 15.40701911 11415
STARLINK-36136          
1 66967U 25288J   26044.67920683  .00045875  00000+0  10973-2 0  9996
2 66967  42.9990 159.1919 0002816 248.1969 111.8588 15.40741234 11612
STARLINK-36152          
1 66968U 25288K   26045.25002315  .00044686  00000+0  16249-2 0  9996
2 66968  42.9995 156.0527 0001929 301.7652 286.2483 15.27552767  5900
STARLINK-36149          
1 66969U 25288L   26045.29417463 -.00273946  00000+0 -69591-2 0  9998
2 66969  42.9938 156.0886 0002105  35.6592 324.4405 15.39950578 11708
STARLINK-35703          
1 66970U 25288M   26044.67249253  .00037542  00000+0  90123-3 0  9995
2 66970  42.9995 159.1422 0001363 285.7307  74.3399 15.40710812 11610
